{
    "links": {
        "self": "http://www.neowsapp.com/rest/v1/neo/54017186?api_key=iIulBulltgU6a56xZRHN4H3l9WmuAYTsLGpBGhQ2"
    },
    "id": "54017186",
    "neo_reference_id": "54017186",
    "name": "(2020 KJ3)",
    "designation": "2020 KJ3",
    "nasa_jpl_url": "http://ssd.jpl.nasa.gov/sbdb.cgi?sstr=54017186",
    "absolute_magnitude_h": 25.959,
    "estimated_diameter": {
        "kilometers": {
            "estimated_diameter_min": 0.0170905082,
            "estimated_diameter_max": 0.0382155381
        },
        "meters": {
            "estimated_diameter_min": 17.0905081842,
            "estimated_diameter_max": 38.2155380699
        },
        "miles": {
            "estimated_diameter_min": 0.0106195462,
            "estimated_diameter_max": 0.0237460271
        },
        "feet": {
            "estimated_diameter_min": 56.071222871,
            "estimated_diameter_max": 125.3790659212
        }
    },
    "is_potentially_hazardous_asteroid": false,
    "close_approach_data": [
        {
            "close_approach_date": "2013-10-27",
            "close_approach_date_full": "2013-Oct-27 23:36",
            "epoch_date_close_approach": 1382916960000,
            "relative_velocity": {
                "kilometers_per_second": "24.7010918762",
                "kilometers_per_hour": "88923.9307543913",
                "miles_per_hour": "55253.8724179161"
            },
            "miss_distance": {
                "astronomical": "0.4924906368",
                "lunar": "191.5788577152",
                "kilometers": "73675550.260223616",
                "miles": "45779864.0911972608"
            },
            "orbiting_body": "Earth"
        },
        {
            "close_approach_date": "2020-05-27",
            "close_approach_date_full": "2020-May-27 09:00",
            "epoch_date_close_approach": 1590570000000,
            "relative_velocity": {
                "kilometers_per_second": "10.1181582459",
                "kilometers_per_hour": "36425.3696854038",
                "miles_per_hour": "22633.3081803555"
            },
            "miss_distance": {
                "astronomical": "0.0199779517",
                "lunar": "7.7714232113",
                "kilometers": "2988659.021282879",
                "miles": "1857066.6025025702"
            },
            "orbiting_body": "Earth"
        },
        {
            "close_approach_date": "2025-10-15",
            "close_approach_date_full": "2025-Oct-15 19:47",
            "epoch_date_close_approach": 1760557620000,
            "relative_velocity": {
                "kilometers_per_second": "17.2270274743",
                "kilometers_per_hour": "62017.2989073302",
                "miles_per_hour": "38535.1377571686"
            },
            "miss_distance": {
                "astronomical": "0.2422941423",
                "lunar": "94.2524213547",
                "kilometers": "36246687.601556901",
                "miles": "22522647.2865751938"
            },
            "orbiting_body": "Earth"
        }
    ],
    "orbital_data": {
        "orbit_id": "7",
        "orbit_determination_date": "2020-06-14 06:29:38",
        "first_observation_date": "2020-05-12",
        "last_observation_date": "2020-05-28",
        "data_arc_in_days": 16,
        "observations_used": 51,
        "orbit_uncertainty": "7",
        "minimum_orbit_intersection": ".019763",
        "jupiter_tisserand_invariant": "4.601",
        "epoch_osculation": "2459000.5",
        "eccentricity": ".393141472235513",
        "semi_major_axis": "1.429953488790119",
        "inclination": "3.607061127268987",
        "ascending_node_longitude": "228.2560157788381",
        "orbital_period": "624.5702509002662",
        "perihelion_distance": ".8677794689788633",
        "perihelion_argument": "79.04138120776661",
        "aphelion_distance": "1.992127508601375",
        "perihelion_time": "2459044.354136515283",
        "mean_anomaly": "334.7226366885942",
        "mean_motion": ".5763963292857607",
        "equinox": "J2000",
        "orbit_class": {
            "orbit_class_type": "APO",
            "orbit_class_description": "Near-Earth asteroid orbits which cross the Earth’s orbit similar to that of 1862 Apollo",
            "orbit_class_range": "a (semi-major axis) > 1.0 AU; q (perihelion) < 1.017 AU"
        }
    },
    "is_sentry_object": false
}